NORAD_CAT_ID,OBJECT_NAME,OBJECT_TYPE,EPOCH,MEAN_MOTION,ECCENTRICITY,INCLINATION,RA_OF_ASC_NODE,ARG_OF_PERICENTER,MEAN_ANOMALY,BSTAR,MEAN_MOTION_DOT,MEAN_MOTION_DDOT,TLE_LINE0,TLE_LINE1,TLE_LINE2,SEMIMAJOR_AXIS,PERIOD,APOGEE,PERIGEE,DECAYED
54004.0,STARLINK-5129,PAYLOAD,2023-11-22 11:10:09,15.08856576,0.00015,53.2192,16.7407,88.4639,271.6525,0.00017901,2.563e-05,0.0,0 STARLINK-5129,1 54004U 22125AS  23326.46538587  .00002563  00000-0  17901-3 0  9994,2 54004  53.2192  16.7407 0001500  88.4639 271.6525 15.08856576 62979,6917.83,95.437,540.732,538.657,0.0
54004.0,STARLINK-5129,PAYLOAD,2023-11-22 12:45:32,15.0886147,0.0001383,53.2184,16.4418,90.6189,269.4961,0.000212,3.09e-05,0.0,0 STARLINK-5129,1 54004U 22125AS  23326.53162234  .00003090  00000-0  21200-3 0  9997,2 54004  53.2184  16.4418 0001383  90.6189 269.4961 15.08861470 62937,6917.815,95.436,540.636,538.723,0.0
54004.0,STARLINK-5129,PAYLOAD,2023-11-22 22:17:52,15.08840226,0.0001563,53.2185,14.6593,85.5023,274.6147,3.5749e-05,2.81e-06,0.0,0 STARLINK-5129,1 54004U 22125AS  23326.92907719  .00000281  00000-0  35749-4 0  9998,2 54004  53.2185  14.6593 0001563  85.5023 274.6147 15.08840226 63045,6917.88,95.438,540.826,538.663,0.0
54004.0,STARLINK-5129,PAYLOAD,2023-11-23 11:00:57,15.08843403,0.0001553,53.2175,12.2791,82.6307,277.4861,6.1382e-05,6.89e-06,0.0,0 STARLINK-5129,1 54004U 22125AS  23327.45899605  .00000689  00000-0  61382-4 0  9995,2 54004  53.2175  12.2791 0001553  82.6307 277.4861 15.08843403 63077,6917.87,95.437,540.809,538.661,0.0
54004.0,STARLINK-5129,PAYLOAD,2023-11-24 02:54:49,15.08832407,0.000151,53.2181,9.3066,94.7637,265.3527,-5.0724e-05,-1.095e-05,0.0,0 STARLINK-5129,1 54004U 22125AS  23328.12140434 -.00001095  00000-0 -50724-4 0  9991,2 54004  53.2181   9.3066 0001510  94.7637 265.3527 15.08832407 63223,6917.904,95.438,540.813,538.724,0.0
54004.0,STARLINK-5129,PAYLOAD,2023-11-24 09:16:22,15.08829886,0.0001925,53.2188,8.1185,79.1058,281.0151,-4.2729e-05,-9.68e-06,0.0,0 STARLINK-5129,1 54004U 22125AS  23328.38636919 -.00000968  00000-0 -42729-4 0  9991,2 54004  53.2188   8.1185 0001925  79.1058 281.0151 15.08829886 63217,6917.911,95.438,541.108,538.445,0.0
54004.0,STARLINK-5129,PAYLOAD,2023-11-24 14:02:31,15.08841241,0.0001764,53.2191,7.2228,83.7385,276.3808,1.4361e-05,-6e-07,0.0,0 STARLINK-5129,1 54004U 22125AS  23328.58508305 -.00000060  00000-0  14361-4 0  9993,2 54004  53.2191   7.2228 0001764  83.7385 276.3808 15.08841241 63297,6917.877,95.437,540.962,538.521,0.0
54004.0,STARLINK-5129,PAYLOAD,2023-11-25 07:31:45,15.08843501,0.0001835,53.218,3.9571,65.6047,294.5137,0.00025255,3.734e-05,0.0,0 STARLINK-5129,1 54004U 22125AS  23329.31372634  .00003734  00000-0  25255-3 0  9992,2 54004  53.2180   3.9571 0001835  65.6047 294.5137 15.08843501 63357,6917.87,95.437,541.004,538.465,0.0
54004.0,STARLINK-5129,PAYLOAD,2023-11-26 02:36:23,15.088508,0.0001836,53.2183,0.3904,61.2781,298.8395,0.00040531,6.17e-05,0.0,0 STARLINK-5129,1 54004U 22125AS  23330.10860186  .00006170  00000-0  40531-3 0  9996,2 54004  53.2183   0.3904 0001836  61.2781 298.8395 15.08850800 63521,6917.847,95.437,540.982,538.442,0.0
54004.0,STARLINK-5129,PAYLOAD,2023-11-26 08:57:54,15.0887453,0.0001701,53.219,359.1952,109.7321,250.3854,0.0006065,9.387e-05,0.0,0 STARLINK-5129,1 54004U 22125AS  23330.37354569  .00009387  00000-0  60650-3 0  9995,2 54004  53.2190 359.1952 0001701 109.7321 250.3854 15.08874530 63569,6917.775,95.435,540.817,538.463,0.0
54004.0,STARLINK-5129,PAYLOAD,2023-11-26 23:16:24,15.08829106,0.0001754,53.2183,356.5219,105.1694,254.9492,-0.00011538,-2.123e-05,0.0,0 STARLINK-5129,1 54004U 22125AS  23330.96972925 -.00002123  00000-0 -11538-3 0  9996,2 54004  53.2183 356.5219 0001754 105.1694 254.9492 15.08829106 63656,6917.914,95.438,540.992,538.565,0.0
54004.0,STARLINK-5129,PAYLOAD,2023-11-27 11:59:30,15.08816131,0.0001704,53.2182,354.1406,87.6337,272.485,-0.00031839,-5.348e-05,0.0,0 STARLINK-5129,1 54004U 22125AS  23331.49966313 -.00005348  00000-0 -31839-3 0  9997,2 54004  53.2182 354.1406 0001704  87.6337 272.4850 15.08816131 63736,6917.953,95.439,540.997,538.64,0.0
54004.0,STARLINK-5129,PAYLOAD,2023-11-27 23:07:12,15.08822322,0.0001927,53.2188,352.062,95.8745,264.2467,-0.00011151,-2.062e-05,0.0,0 STARLINK-5129,1 54004U 22125AS  23331.96334475 -.00002062  00000-0 -11151-3 0  9992,2 54004  53.2188 352.0620 0001927  95.8745 264.2467 15.08822322 63808,6917.934,95.439,541.133,538.466,0.0
54004.0,STARLINK-5129,PAYLOAD,2023-11-28 10:14:54,15.08845746,0.0001948,53.2187,349.9772,98.2355,261.8858,0.00026074,3.865e-05,0.0,0 STARLINK-5129,1 54004U 22125AS  23332.42701561  .00003865  00000-0  26074-3 0  9998,2 54004  53.2187 349.9772 0001948  98.2355 261.8858 15.08845746 63876,6917.863,95.437,541.075,538.38,0.0
54004.0,STARLINK-5129,PAYLOAD,2023-11-29 00:33:23,15.08834131,0.0001919,53.2176,347.3034,86.9153,273.2059,0.00049474,7.593e-05,0.0,0 STARLINK-5129,1 54004U 22125AS  23333.02318558  .00007593  00000-0  49474-3 0  9996,2 54004  53.2176 347.3034 0001919  86.9153 273.2059 15.08834131 63961,6917.898,95.438,541.091,538.436,0.0
54004.0,STARLINK-5129,PAYLOAD,2023-11-29 08:30:18,15.08843943,0.0002269,53.2185,345.8165,65.6731,294.4498,0.00051252,7.879e-05,0.0,0 STARLINK-5129,1 54004U 22125AS  23333.35438325  .00007879  00000-0  51252-3 0  9991,2 54004  53.2185 345.8165 0002269  65.6731 294.4498 15.08843943 63967,6917.868,95.437,541.303,538.164,0.0
54004.0,STARLINK-5129,PAYLOAD,2023-11-30 09:56:28,15.08855188,0.0002062,53.2175,341.0551,98.8227,261.2998,0.00017397,2.483e-05,0.0,0 STARLINK-5129,1 54004U 22125AS  23334.41421511  .00002483  00000-0  17397-3 0  9996,2 54004  53.2175 341.0551 0002062  98.8227 261.2998 15.08855188 64177,6917.834,95.437,541.125,538.273,0.0
54004.0,STARLINK-5129,PAYLOAD,2023-12-01 09:47:15,15.08851995,0.0001949,53.2188,336.5958,89.3392,270.7824,7.2355e-05,8.64e-06,0.0,0 STARLINK-5129,1 54004U 22125AS  23335.40781333  .00000864  00000-0  72355-4 0  9994,2 54004  53.2188 336.5958 0001949  89.3392 270.7824 15.08851995 64324,6917.844,95.437,541.057,538.36,0.0
54004.0,STARLINK-5129,PAYLOAD,2023-12-02 06:27:14,15.0887444,0.0002141,53.2188,332.7273,111.1652,248.9569,0.00047914,7.353e-05,0.0,0 STARLINK-5129,1 54004U 22125AS  23336.26891849  .00007353  00000-0  47914-3 0  9995,2 54004  53.2188 332.7273 0002141 111.1652 248.9569 15.08874440 64457,6917.775,95.435,541.121,538.159,0.0
54004.0,STARLINK-5129,PAYLOAD,2023-12-03 03:07:17,15.08828701,0.0002067,53.219,328.8633,106.6758,253.4462,-0.00014518,-2.597e-05,0.0,0 STARLINK-5129,1 54004U 22125AS  23337.13006502 -.00002597  00000-0 -14518-3 0  9997,2 54004  53.2190 328.8633 0002067 106.6758 253.4462 15.08828701 64585,6917.915,95.438,541.21,538.35,0.0
54004.0,STARLINK-5129,PAYLOAD,2023-12-03 09:28:50,15.08817978,0.0001799,53.2184,327.6744,86.7183,273.4015,-0.0002528,-4.307e-05,0.0,0 STARLINK-5129,1 54004U 22125AS  23337.39503401 -.00004307  00000-0 -25280-3 0  9994,2 54004  53.2184 327.6744 0001799  86.7183 273.4015 15.08817978 64624,6917.948,95.439,541.057,538.568,0.0
54004.0,STARLINK-5129,PAYLOAD,2023-12-03 14:15:00,15.08827413,0.0001877,53.2186,326.7806,85.5437,274.577,-8.9605e-05,-1.713e-05,0.0,0 STARLINK-5129,1 54004U 22125AS  23337.59375125 -.00001713  00000-0 -89605-4 0  9996,2 54004  53.2186 326.7806 0001877  85.5437 274.5770 15.08827413 64659,6917.919,95.438,541.082,538.485,0.0
54004.0,STARLINK-5129,PAYLOAD,2023-12-04 02:58:04,15.08841126,0.0001857,53.2168,324.4017,78.1157,282.0043,-4.8024e-05,-1.052e-05,0.0,0 STARLINK-5129,1 54004U 22125AS  23338.12366439 -.00001052  00000-0 -48024-4 0  9990,2 54004  53.2168 324.4017 0001857  78.1157 282.0043 15.08841126 64736,6917.877,95.437,541.027,538.457,0.0
54004.0,STARLINK-5129,PAYLOAD,2023-12-04 04:33:27,15.08842489,0.0001924,53.2162,324.105,74.8726,285.2479,-1.3114e-05,-4.97e-06,0.0,0 STARLINK-5129,1 54004U 22125AS  23338.18990432 -.00000497  00000-0 -13114-4 0  9996,2 54004  53.2162 324.1050 0001924  74.8726 285.2479 15.08842489 64690,6917.873,95.437,541.069,538.407,0.0
54004.0,STARLINK-5129,PAYLOAD,2023-12-05 05:59:37,15.08872527,0.0002097,53.2179,319.3488,79.5489,280.5739,0.00086748,0.00013557,0.0,0 STARLINK-5129,1 54004U 22125AS  23339.24974095  .00013557  00000-0  86748-3 0  9992,2 54004  53.2179 319.3488 0002097  79.5489 280.5739 15.08872527 64906,6917.781,95.435,541.097,538.195,0.0
54004.0,STARLINK-5129,PAYLOAD,2023-12-06 04:15:01,15.0885303,0.000227,53.2184,315.187,87.08,273.0452,4.5181e-05,4.31e-06,0.0,0 STARLINK-5129,1 54004U 22125AS  23340.17709689  .00000431  00000-0  45181-4 0  9995,2 54004  53.2184 315.1870 0002270  87.0800 273.0452 15.08853030 65048,6917.841,95.437,541.276,538.135,0.0
54004.0,STARLINK-5129,PAYLOAD,2023-12-06 07:25:47,15.08853132,0.0002185,53.2178,314.5911,86.7769,273.3473,8.6408e-05,1.088e-05,0.0,0 STARLINK-5129,1 54004U 22125AS  23340.30957574  .00001088  00000-0  86408-4 0  9994,2 54004  53.2178 314.5911 0002185  86.7769 273.3473 15.08853132 65011,6917.84,95.437,541.217,538.194,0.0
54004.0,STARLINK-5129,PAYLOAD,2023-12-07 04:05:48,15.08831512,0.000224,53.2181,310.7278,91.8269,268.298,-0.00017783,-3.117e-05,0.0,0 STARLINK-5129,1 54004U 22125AS  23341.17070401 -.00003117  00000-0 -17783-3 0  9991,2 54004  53.2181 310.7278 0002240  91.8269 268.2980 15.08831512 65196,6917.906,95.438,541.321,538.222,0.0
54004.0,STARLINK-5129,PAYLOAD,2023-12-07 07:16:35,15.08836919,0.0002235,53.2182,310.1267,83.6671,276.4575,-0.00018459,-3.225e-05,0.0,0 STARLINK-5129,1 54004U 22125AS  23341.30318445 -.00003225  00000-0 -18459-3 0  9990,2 54004  53.2182 310.1267 0002235  83.6671 276.4575 15.08836919 65163,6917.89,95.438,541.301,538.209,0.0
54004.0,STARLINK-5129,PAYLOAD,2023-12-08 07:07:22,15.08845907,0.0001781,53.2189,305.668,91.7047,268.4149,0.00013481,1.858e-05,0.0,0 STARLINK-5129,1 54004U 22125AS  23342.29678846  .00001858  00000-0  13481-3 0  9991,2 54004  53.2189 305.6680 0001781  91.7047 268.4149 15.08845907 65367,6917.862,95.437,540.959,538.495,0.0
